{"type": "FeatureCollection", "features": [ {"type": "Feature", "properties": {"norad_id": 39109, "name": "COSMOS 2251 DEB", "group": "cosmos-2251-debris", "lat": -31.2456486507747, "lon": -151.13896658063067, "alt_km": 622.9062280102398, "timestamp": "2025-12-15T22:44:29.328597+00:00", "meta": {"OBJECT_NAME": "COSMOS 2251 DEB", "OBJECT_ID": "1993-036BTY", "EPOCH": "2025-12-09T10:58:18.988608", "MEAN_MOTION": 14.70683686, "ECCENTRICITY": 0.00592583, "INCLINATION": 74.0426, "RA_OF_ASC_NODE": 231.4464, "ARG_OF_PERICENTER": 335.6145, "MEAN_ANOMALY": 202.0339, "EPHEMERIS_TYPE": 0, "CLASSIFICATION_TYPE": "U", "NORAD_CAT_ID": 39109, "ELEMENT_SET_NO": 999, "REV_AT_EPOCH": 65125, "BSTAR": 0.00089315049, "MEAN_MOTION_DOT": 5.561e-05, "MEAN_MOTION_DDOT": 0}, "tle": {"line1": "1 39109U 93036BTY 25343.45716422  .00005561  00000+0  89315-3 0  9996", "line2": "2 39109  74.0426 231.4464 0059258 335.6145 202.0339 14.70683686651254"}}, "geometry": {"type": "Point", "coordinates": [-151.13896658063067, -31.2456486507747]}}, {"type": "Feature", "properties": {"norad_id": 39110, "name": "COSMOS 2251 DEB", "group": "cosmos-2251-debris", "lat": 13.04349796357445, "lon": -128.58090996961488, "alt_km": 688.0837276282427, "timestamp": "2025-12-15T22:44:29.328607+00:00", "meta": {"OBJECT_NAME": "COSMOS 2251 DEB", "OBJECT_ID": "1993-036BTZ", "EPOCH": "2025-12-03T13:14:13.055136", "MEAN_MOTION": 14.72215365, "ECCENTRICITY": 0.00964609, "INCLINATION": 73.9598, "RA_OF_ASC_NODE": 79.4668, "ARG_OF_PERICENTER": 313.6965, "MEAN_ANOMALY": 59.6182, "EPHEMERIS_TYPE": 0, "CLASSIFICATION_TYPE": "U", "NORAD_CAT_ID": 39110, "ELEMENT_SET_NO": 999, "REV_AT_EPOCH": 62349, "BSTAR": 0.00066560445, "MEAN_MOTION_DOT": 4.484e-05, "MEAN_MOTION_DDOT": 0}, "tle": {"line1": "1 39110U 93036BTZ 25337.55153999  .00004484  00000+0  66560-3 0  9996", "line2": "2 39110  73.9598  79.4668 0096460 313.6965  59.6182 14.72215365623496"}}, "geometry": {"type": "Point", "coordinates": [-128.58090996961488, 13.04349796357445]}}, {"type": "Feature", "properties": {"norad_id": 39111, "name": "COSMOS 2251 DEB", "group": "cosmos-2251-debris", "lat": -41.31008772102077, "lon": -130.92915428564254, "alt_km": 533.9387244921481, "timestamp": "2025-12-15T22:44:29.328617+00:00", "meta": {"OBJECT_NAME": "COSMOS 2251 DEB", "OBJECT_ID": "1993-036BUA", "EPOCH": "2025-12-01T22:58:55.551360", "MEAN_MOTION": 15.11912111, "ECCENTRICITY": 0.00109111, "INCLINATION": 74.0059, "RA_OF_ASC_NODE": 63.5328, "ARG_OF_PERICENTER": 39.1207, "MEAN_ANOMALY": 321.0773, "EPHEMERIS_TYPE": 0, "CLASSIFICATION_TYPE": "U", "NORAD_CAT_ID": 39111, "ELEMENT_SET_NO": 999, "REV_AT_EPOCH": 8982, "BSTAR": 0.0056424119, "MEAN_MOTION_DOT": 0.00098096, "MEAN_MOTION_DDOT": 0}, "tle": {"line1": "1 39111U 93036BUA 25335.95758740  .00098096  00000+0  56424-2 0  9993", "line2": "2 39111  74.0059  63.5328 0010911  39.1207 321.0773 15.11912111 89826"}}, "geometry": {"type": "Point", "coordinates": [-130.92915428564254, -41.31008772102077]}}, {"type": "Feature", "properties": {"norad_id": 39546, "name": "COSMOS 2251 DEB", "group": "cosmos-2251-debris", "lat": 71.5586187978653, "lon": -170.27247254152843, "alt_km": 610.77021043477, "timestamp": "2025-12-15T22:44:29.328628+00:00", "meta": {"OBJECT_NAME": "COSMOS 2251 DEB", "OBJECT_ID": "1993-036BUC", "EPOCH": "2025-12-14T02:56:02.642784", "MEAN_MOTION": 14.92108062, "ECCENTRICITY": 0.00440773, "INCLINATION": 73.9975, "RA_OF_ASC_NODE": 134.0104, "ARG_OF_PERICENTER": 293.868, "MEAN_ANOMALY": 65.7886, "EPHEMERIS_TYPE": 0, "CLASSIFICATION_TYPE": "U", "NORAD_CAT_ID": 39546, "ELEMENT_SET_NO": 999, "REV_AT_EPOCH": 64457, "BSTAR": 0.0014045613, "MEAN_MOTION_DOT": 0.0001454, "MEAN_MOTION_DDOT": 0}, "tle": {"line1": "1 39546U 93036BUC 25348.12225281  .00014540  00000+0  14046-2 0  9993", "line2": "2 39546  73.9975 134.0104 0044077 293.8680  65.7886 14.92108062644579"}}, "geometry": {"type": "Point", "coordinates": [-170.27247254152843, 71.5586187978653]}}, {"type": "Feature", "properties": {"norad_id": 39547, "name": "COSMOS 2251 DEB", "group": "cosmos-2251-debris", "lat": -21.669685691644823, "lon": -161.63854860582248, "alt_km": 563.7282653544335, "timestamp": "2025-12-15T22:44:29.328638+00:00", "meta": {"OBJECT_NAME": "COSMOS 2251 DEB", "OBJECT_ID": "1993-036BUD", "EPOCH": "2025-12-11T09:19:23.142720", "MEAN_MOTION": 15.03149488, "ECCENTRICITY": 0.00052092, "INCLINATION": 74.0018, "RA_OF_ASC_NODE": 21.1464, "ARG_OF_PERICENTER": 16.2917, "MEAN_ANOMALY": 0.6798, "EPHEMERIS_TYPE": 0, "CLASSIFICATION_TYPE": "U", "NORAD_CAT_ID": 39547, "ELEMENT_SET_NO": 999, "REV_AT_EPOCH": 64005, "BSTAR": 0.0051209995, "MEAN_MOTION_DOT": 0.00069871, "MEAN_MOTION_DDOT": 0}, "tle": {"line1": "1 39547U 93036BUD 25345.38846230  .00069871  00000+0  51210-2 0  9993", "line2": "2 39547  74.0018  21.1464 0005209  16.2917   0.6798 15.03149488640058"}}, "geometry": {"type": "Point", "coordinates": [-161.63854860582248, -21.669685691644823]}}, {"type": "Feature", "properties": {"norad_id": 39553, "name": "COSMOS 2251 DEB", "group": "cosmos-2251-debris", "lat": -68.529373138841, "lon": -168.81126414715132, "alt_km": 1033.9832430403121, "timestamp": "2025-12-15T22:44:29.328648+00:00", "meta": {"OBJECT_NAME": "COSMOS 2251 DEB", "OBJECT_ID": "1993-036BUK", "EPOCH": "2025-12-07T06:00:50.455872", "MEAN_MOTION": 13.99876591, "ECCENTRICITY": 0.02014092, "INCLINATION": 74.0304, "RA_OF_ASC_NODE": 339.5232, "ARG_OF_PERICENTER": 116.8065, "MEAN_ANOMALY": 245.3825, "EPHEMERIS_TYPE": 0, "CLASSIFICATION_TYPE": "U", "NORAD_CAT_ID": 39553, "ELEMENT_SET_NO": 999, "REV_AT_EPOCH": 75540, "BSTAR": 0.00088887208, "MEAN_MOTION_DOT": 1.532e-05, "MEAN_MOTION_DDOT": 0}, "tle": {"line1": "1 39553U 93036BUK 25341.25058398  .00001532  00000+0  88887-3 0  9993", "line2": "2 39553  74.0304 339.5232 0201409 116.8065 245.3825 13.99876591755403"}}, "geometry": {"type": "Point", "coordinates": [-168.81126414715132, -68.529373138841]}}, {"type": "Feature", "properties": {"norad_id": 39554, "name": "COSMOS 2251 DEB", "group": "cosmos-2251-debris", "lat": 55.29017013806684, "lon": 53.538247999789654, "alt_km": 526.4527871318751, "timestamp": "2025-12-15T22:44:29.328659+00:00", "meta": {"OBJECT_NAME": "COSMOS 2251 DEB", "OBJECT_ID": "1993-036BUL", "EPOCH": "2025-12-10T06:12:03.924864", "MEAN_MOTION": 15.10130993, "ECCENTRICITY": 0.0002993, "INCLINATION": 74.0187, "RA_OF_ASC_NODE": 269.7383, "ARG_OF_PERICENTER": 74.7531, "MEAN_ANOMALY": 81.5927, "EPHEMERIS_TYPE": 0, "CLASSIFICATION_TYPE": "U", "NORAD_CAT_ID": 39554, "ELEMENT_SET_NO": 999, "REV_AT_EPOCH": 64347, "BSTAR": 0.0046896, "MEAN_MOTION_DOT": 0.000773, "MEAN_MOTION_DDOT": 0}, "tle": {"line1": "1 39554U 93036BUL 25344.25837876  .00077300  00000+0  46896-2 0  9992", "line2": "2 39554  74.0187 269.7383 0002993  74.7531  81.5927 15.10130993643471"}}, "geometry": {"type": "Point", "coordinates": [53.538247999789654, 55.29017013806684]}}, {"type": "Feature", "properties": {"norad_id": 39583, "name": "COSMOS 2251 DEB", "group": "cosmos-2251-debris", "lat": -55.83677128391323, "lon": -144.06962681359732, "alt_km": 639.4027555356233, "timestamp": "2025-12-15T22:44:29.328669+00:00", "meta": {"OBJECT_NAME": "COSMOS 2251 DEB", "OBJECT_ID": "1993-036BUN", "EPOCH": "2025-12-14T10:50:25.115712", "MEAN_MOTION": 14.60484524, "ECCENTRICITY": 0.01368617, "INCLINATION": 73.9326, "RA_OF_ASC_NODE": 243.9349, "ARG_OF_PERICENTER": 357.0226, "MEAN_ANOMALY": 3.0108, "EPHEMERIS_TYPE": 0, "CLASSIFICATION_TYPE": "U", "NORAD_CAT_ID": 39583, "ELEMENT_SET_NO": 999, "REV_AT_EPOCH": 61804, "BSTAR": 0.0018336119, "MEAN_MOTION_DOT": 0.00010132, "MEAN_MOTION_DDOT": 0}, "tle": {"line1": "1 39583U 93036BUN 25348.45167958  .00010132  00000+0  18336-2 0  9995", "line2": "2 39583  73.9326 243.9349 0136861 357.0226   3.0108 14.60484524618043"}}, "geometry": {"type": "Point", "coordinates": [-144.06962681359732, -55.83677128391323]}}, {"type": "Feature", "properties": {"norad_id": 39585, "name": "COSMOS 2251 DEB", "group": "cosmos-2251-debris", "lat": 66.98502895445746, "lon": 72.86684450743742, "alt_km": 661.4543792471486, "timestamp": "2025-12-15T22:44:29.328680+00:00", "meta": {"OBJECT_NAME": "COSMOS 2251 DEB", "OBJECT_ID": "1993-036BUQ", "EPOCH": "2025-12-14T03:27:48.164544", "MEAN_MOTION": 14.5867271, "ECCENTRICITY": 0.00655931, "INCLINATION": 74.0424, "RA_OF_ASC_NODE": 298.6434, "ARG_OF_PERICENTER": 59.1971, "MEAN_ANOMALY": 301.5627, "EPHEMERIS_TYPE": 0, "CLASSIFICATION_TYPE": "U", "NORAD_CAT_ID": 39585, "ELEMENT_SET_NO": 999, "REV_AT_EPOCH": 62541, "BSTAR": 0.00040250434, "MEAN_MOTION_DOT": 1.903e-05, "MEAN_MOTION_DDOT": 0}, "tle": {"line1": "1 39585U 93036BUQ 25348.14430746  .00001903  00000+0  40250-3 0  9998", "line2": "2 39585  74.0424 298.6434 0065593  59.1971 301.5627 14.58672710625412"}}, "geometry": {"type": "Point", "coordinates": [72.86684450743742, 66.98502895445746]}}, {"type": "Feature", "properties": {"norad_id": 39586, "name": "COSMOS 2251 DEB", "group": "cosmos-2251-debris", "lat": -8.726983327248746, "lon": 45.01334875043677, "alt_km": 895.6033943329221, "timestamp": "2025-12-15T22:44:29.328691+00:00", "meta": {"OBJECT_NAME": "COSMOS 2251 DEB", "OBJECT_ID": "1993-036BUR", "EPOCH": "2025-12-11T10:34:49.908288", "MEAN_MOTION": 14.21221392, "ECCENTRICITY": 0.01007513, "INCLINATION": 74.009, "RA_OF_ASC_NODE": 230.5784, "ARG_OF_PERICENTER": 5.5344, "MEAN_ANOMALY": 174.6065, "EPHEMERIS_TYPE": 0, "CLASSIFICATION_TYPE": "U", "NORAD_CAT_ID": 39586, "ELEMENT_SET_NO": 999, "REV_AT_EPOCH": 60953, "BSTAR": 0.00065665467, "MEAN_MOTION_DOT": 1.479e-05, "MEAN_MOTION_DDOT": 0}, "tle": {"line1": "1 39586U 93036BUR 25345.44085542  .00001479  00000+0  65665-3 0  9994", "line2": "2 39586  74.0090 230.5784 0100751   5.5344 174.6065 14.21221392609536"}}, "geometry": {"type": "Point", "coordinates": [45.01334875043677, -8.726983327248746]}}]}